NUSAT-1 (FRESCO)        
1 41557U 16033B   22189.24136163  .00007578  00000+0  22478-3 0  9995
2 41557  97.3894 286.9795 0009249 306.4876 137.4163 15.35073328340579
BEESAT-4                
1 41619U 16040W   22188.63334120  .00009560  00000+0  31552-3 0  9993
2 41619  97.2154 238.7275 0010531  54.5520 305.6703 15.31565971323810
CAS-2T & KS-1Q          
1 41847U 16066G   22188.65286546  .00000817  00000+0  13123-3 0  9994
2 41847  98.5499 253.3021 0364472 149.3241 212.9819 14.38615859297253
NAYIF-1 (EO-88)         
1 42017U 17008BX  22189.16532136  .00015158  00000+0  44598-3 0  9991
2 42017  97.2678 254.9844 0006033 155.2866 204.8668 15.35151441300250
ZHUHAI-1 02 (CAS-4B)    
1 42759U 17034B   22189.46191667  .00001561  00000+0  10210-3 0  9993
2 42759  43.0167 216.8923 0008334  53.0752  86.5154 15.12023768279531
ZHUHAI-1 01 (CAS-4A)    
1 42761U 17034D   22189.56195421  .00001366  00000+0  90805-4 0  9991
2 42761  43.0166 215.1098 0008447  56.6683  79.8661 15.12108239279552
MAX VALIER SAT          
1 42778U 17036P   22189.35662809  .00006667  00000+0  25195-3 0  9995
2 42778  97.2038 229.7411 0008918 246.2638 113.7666 15.27269154280093
RADFXSAT (FOX-1B)       
1 43017U 17073E   22188.97297531  .00002978  00000+0  22520-3 0  9996
2 43017  97.6734  82.3265 0249665 120.4653 242.1477 14.81492002250153
FOX-1D (AO-92)          
1 43137U 18004AC  22189.16086408  .00007928  00000+0  27802-3 0  9993
2 43137  97.3680 264.1343 0005826 290.7943  69.2673 15.29698631249504
DIWATA-2B               
1 43678U 18084H   22189.37127410  .00000077  00000+0  13308-4 0  9998
2 43678  97.9739 322.8851 0009015 209.7314 150.3394 14.92194457200973
ES'HAIL 2               
1 43700U 18090A   22188.88382782  .00000158  00000+0  00000+0 0  9991
2 43700   0.0166  51.8898 0001249  65.8220 152.0660  1.00270343 13236
FOX-1CLIFF (AO-95)      
1 43770U 18099N   22189.18478848  .00001749  00000+0  15870-3 0  9992
2 43770  97.6195 254.9964 0013779 200.1892 159.8787 14.96509506196116
ITASAT 1                
1 43786U 18099AE  22189.17611000  .00001115  00000+0  10261-3 0  9993
2 43786  97.6221 255.9183 0014538 193.8783 166.2041 14.96645629196154
JY1SAT (JO-97)          
1 43803U 18099AX  22189.18695277  .00001909  00000+0  16989-3 0  9996
2 43803  97.6181 255.6892 0014601 192.0478 168.0397 14.97155843196177
UWE-4                   
1 43880U 18111E   22188.70415592  .00001608  00000+0  14014-3 0  9996
2 43880  97.6684  94.6627 0009712 251.8322 108.1843 14.98251239192732
NEXUS (FO-99)           
1 43937U 19003F   22189.08568237  .00011327  00000+0  37657-3 0  9994
2 43937  97.1294 221.6365 0022422  82.0418 278.3367 15.31085656193133
PSAT2 (NO-104)          
1 44354U 19036R   22189.25357349  .00052521 -57418-5  44710-3 0  9994
2 44354  28.5267  33.8887 0221871 205.5557 153.3930 15.42064727167881
JAISAT-1                
1 44419U 19038F   22188.87889450  .00006851  00000+0  34269-3 0  9999
2 44419  97.6362 159.1695 0021073  63.6482 296.6911 15.17562155166156
DUCHIFAT-3              
1 44854U 19089C   22189.53702494  .00002061  00000+0  16373-3 0  9999
2 44854  36.9689 335.3447 0008602  22.9712  38.5851 15.01184098141100
CAS-6 (TO-108)          
1 44881U 19093C   22189.51273119  .00000321  00000+0  47364-4 0  9991
2 44881  97.8925 268.4203 0016286 115.3131 244.9778 14.81747300137894
RS-44 & BREEZE-KM R/B   
1 44909U 19096E   22188.83066722  .00000023  00000+0  55410-4 0  9999
2 44909  82.5198 216.7378 0216162 272.1162  85.5201 12.79713835118113
ORBITAL FACTORY 2 (OF-2)
1 45113U 19071C   22189.05487597  .00024660  00000+0  49874-3 0  9991
2 45113  51.6390 317.9353 0009562 249.3200 110.6762 15.46263547136560
HUSKYSAT-1 (HO-107)     
1 45119U 19071J   22189.39694593  .00021210  00000+0  44538-3 0  9990
2 45119  51.6388 316.4431 0009294 247.0704 112.9302 15.45260885136601
BY70-2                  
1 45857U 20042B   22189.52138673  .00003917  00000+0  52398-3 0  9993
2 45857  97.9548 266.1625 0011613  56.9581 303.2768 14.80010427108574
SALSAT                  
1 46495U 20068K   22188.78025143  .00001969  00000+0  14450-3 0  9996
2 46495  97.7306 130.0879 0015784 204.1229 155.9259 15.04580817 97242
BY70-3                  
1 46839U 20079N   22189.53041404  .00014028  00000+0  32323-3 0  9991
2 46839  97.1961 261.3571 0004156 239.3241 234.1415 15.42695204 93493
RADFXSAT-2 (AO-109)     
1 47311U 21002C   22188.78782416  .00005682  00000+0  23193-3 0  9996
2 47311  60.6859 285.6849 0020065 353.9718   6.1126 15.25544234 81564
UVSQ-SAT                
1 47438U 21006AB  22188.61245561  .00003386  00000+0  18017-3 0  9995
2 47438  97.4359 247.2096 0011503 196.6906 163.3950 15.15869189 80336
DIY-1 (ARDUIQUBE)       
1 47963U 21022AH  22188.44191609  .00009624  00000+0  53212-3 0  9997
2 47963  97.5306  89.5735 0019155  66.1953 294.1284 15.13933084 69977
XW-3 (CAS-9)            
1 50466U 21131B   22189.52603564  .00000044  00000+0  29115-4 0  9991
2 50466  98.5803 266.7700 0005889  90.2970 269.8892 14.38505563 27947
TEVEL-3                 
1 50988U 22002E   22189.57770544  .00004417  00000+0  24239-3 0  9995
2 50988  97.4802 256.2083 0009100   1.9717 107.7405 15.14629320 26615
TEVEL-8                 
1 50989U 22002F   22189.31099958  .00004424  00000+0  24315-3 0  9994
2 50989  97.4818 255.9656 0009101   1.9097  62.7540 15.14574846 26574
TEVEL-5                 
1 50998U 22002Q   22189.38505878  .00004382  00000+0  23725-3 0  9991
2 50998  97.4798 256.1210 0010659 356.4125  66.0710 15.15105320 26596
TEVEL-6                 
1 50999U 22002R   22189.44961984  .00004422  00000+0  23932-3 0  9998
2 50999  97.4793 256.1820 0010555 355.8464  60.7602 15.15111016 26605
TEVEL-1                 
1 51013U 22002AF  22189.58023216  .00004427  00000+0  24311-3 0  9995
2 51013  97.4799 256.1934 0008963   1.3838 108.2747 15.14604944 26618
TEVEL-7                 
1 51062U 22002CG  22189.58497889  .00004434  00000+0  24375-3 0  9998
2 51062  97.4810 256.2228 0009155 359.9234 109.8451 15.14567676 26618
TEVEL-4                 
1 51063U 22002CH  22189.58566686  .00004417  00000+0  24289-3 0  9996
2 51063  97.4811 256.2210 0009021   0.5106 109.8699 15.14559420 26612
TEVEL-2                 
1 51069U 22002CP  22189.57880291  .00004427  00000+0  24299-3 0  9994
2 51069  97.4800 256.1992 0009053   1.5351 108.1368 15.14621880 26615
